#aV2011  6  8  0  0   .00000000      96 DD+AD WGS84 FIT  NGA
## 1639 259200.00000000   900.00000000 55720  .0000000000000
+   32     1  2  3  4  5  6  7  8  9 10 11 12 13 14 15 16 17
+         18 19 20 21 22 23 24 25 26 27 28 29 30 31 32  0  0
+          0  0  0  0  0  0  0  0  0  0  0  0  0  0  0  0  0
+          0  0  0  0  0  0  0  0  0  0  0  0  0  0  0  0  0
+          0  0  0  0  0  0  0  0  0  0  0  0  0  0  0  0  0
++         0  0  0  0  0  0  0  0  0  0  0  0  0  0  0  0  0
++         0  0  0  0  0  0  0  0  0  0  0  0  0  0  0  0  0
++         0  0  0  0  0  0  0  0  0  0  0  0  0  0  0  0  0
++         0  0  0  0  0  0  0  0  0  0  0  0  0  0  0  0  0
++         0  0  0  0  0  0  0  0  0  0  0  0  0  0  0  0  0
%c cc cc ccc ccc cccc cccc cccc cccc ccccc ccccc ccccc ccccc
%c cc cc ccc ccc cccc cccc cccc cccc ccccc ccccc ccccc ccccc
%f  0.0000000  0.000000000  0.00000000000  0.000000000000000
%f  0.0000000  0.000000000  0.00000000000  0.000000000000000
%i    0    0    0    0      0      0      0      0         0
%i    0    0    0    0      0      0      0      0         0
/*      NGA, ST. LOUIS,MO.                                  
/*   EPHEMERIS COMPUTED FROM  3 DAYS OF DATA                
/* CCCCCCCCCCCCCCCCCCCCCCCCCCCCCCCCCCCCCCCCCCCCCCCCCCCCCCCCC
/* CCCCCCCCCCCCCCCCCCCCCCCCCCCCCCCCCCCCCCCCCCCCCCCCCCCCCCCCC
*  2011  6  8  3 30   .00000000                                                 
P  1 -16937.072697   3417.347393  19801.752276     90.319551                    
V  1   9638.604334 -24146.096064  12232.366787       .015839                    
P  2 -13846.327859 -22980.313081   -263.397667    340.597304                    
V  2   2457.995281  -1914.745001  30937.580193       .019757                    
P  3  15184.709375  12162.441870 -18633.567812    725.673343                    
V  3 -22437.819704   4417.993660 -15440.882648       .051591                    
P  4  -3376.062577 -23308.706778  11723.620006    137.986324                    
V  4  10460.176023  11749.717014  26255.273407       .107552                    
P  5  -6983.908492 -16084.831110 -19933.008653   -171.567544                    
V  5  13800.129060 -21277.025602  12446.018596      -.056499                    
P  6  10561.040073  14081.467593 -19795.875827    253.479115                    
V  6 -25416.061270   2497.319860 -11457.735301      -.845994                    
P  7  11414.331905  -9927.057000 -21812.170125     13.621188                    
V  7  13823.705663  23982.157449  -3891.092583       .012508                    
P  8   4907.450790 -18052.077679 -18588.786167      8.088145                    
V  8  11110.137632  21067.690480 -18037.693663       .000782                    
P  9 -18278.840437  -9839.605397  16011.993307     84.996650                    
V  9  -9547.602287 -19140.429848 -21912.463005       .024005                    
P 10   6642.876508 -23789.050238  -9463.133682     -2.995483                    
V 10   8846.882365  -8477.913113  28529.871509      -.012757                    
P 11  22089.715578   9038.637471  11670.768431   -157.641019                    
V 11   7867.394154  13816.329919 -24552.359890      -.032326                    
P 12 -17227.707997   2205.116822  20060.595228       .970281                    
V 12  12310.058091 -22289.905771  13205.611937       .026275                    
P 13  23504.869330  -5434.022942 -11329.093106    266.479883                    
V 13  13912.292945   2760.160714  27835.656467      -.016231                    
P 14  -7235.612191  13948.144424  21547.925608    154.739341                    
V 14 -26865.483627  -2223.377971  -7777.187916       .022300                    
P 15 -25251.222045  -4709.174837  -7079.510349   -122.951220                    
V 15   8928.122866  -2987.879735 -29672.951317       .023793                    
P 16   5767.710262  16266.635430 -20079.048746   -177.537425                    
V 16 -14592.905032  21045.563836  13141.346399      -.025394                    
P 17   6778.222070 -14600.376776  21230.995940    183.999339                    
V 17  26629.381984   1677.320039  -7616.207819      -.003679                    
P 18 -16429.810199  19897.655919  -5058.580391    141.090547                    
V 18    203.468059  -7965.791839 -30471.272897       .019567                    
P 19  23355.192749   8825.945198  -9569.871174   -149.025693                    
V 19 -12196.478472   1242.943093 -28279.058694      -.040609                    
P 20  18352.930096  -5919.818788  18094.209692     49.763114                    
V 20  -9247.907813  21569.882914  16367.077788       .002612                    
P 21 -10641.012310  12242.943747 -20522.818451   -149.700892                    
V 21 -14281.895758 -23224.425413  -6929.886299      -.025703                    
P 22  -9344.479920  24068.978452   6151.463865    147.772931                    
V 22  -7118.968663   4616.219884 -29823.741135      -.004749                    
P 23  26744.061536    689.663947    361.019631    300.785293                    
V 23   -490.659613   2400.214015  31596.014336      -.027385                    
P 24  18137.097168   6752.254376  18369.159487    396.728345                    
V 24   9002.475296  21381.616613 -16511.682645       .032786                    
P 25 -18203.965333  14982.673746  12181.553261      2.849836                    
V 25   5670.803476 -14610.240674  26422.207089       .017558                    
P 26 -16998.524139 -12589.424221 -16904.069902    -53.898430                    
V 26  20128.645859    757.311514 -21187.528069      -.113550                    
P 27 -19107.385096 -14125.062308  12857.856847    272.861149                    
V 27  -6921.999554 -13516.025721 -26174.765257       .035429                    
P 28  12153.912893 -23273.413805   3458.218473     43.254919                    
V 28   4157.816450  -1820.226063 -31837.303779       .026605                    
P 29 -24549.681042   4996.898929  -8674.524673    213.587066                    
V 29 -11012.159923  -3097.448887  29163.959236       .028565                    
P 30   -316.296241  22432.528306 -14611.029636      8.628663                    
V 30 -10111.929927  14848.972984  23717.826165       .047040                    
P 31   5427.293096  23870.780984  10230.880091     92.242053                    
V 31  -8017.247410 -10122.332028  28628.885460       .058289                    
P 32  15533.325353   4188.519866  21348.748706   -269.103798                    
V 32 -14688.303894  22136.147127   6840.185840      -.071514                    
EOF
